[
  {
    "OBJECT_NAME": "STARLINK-34649",
    "OBJECT_ID": "25150J",
    "EPOCH": "2025-11-11T01:46:09.364800",
    "MEAN_MOTION": 15.42752679,
    "ECCENTRICITY": 0.0002767,
    "INCLINATION": 70.0035,
    "RA_OF_ASC_NODE": 79.3622,
    "ARG_OF_PERICENTER": 281.1799,
    "MEAN_ANOMALY": 78.9072,
    "EPHEMERIS_TYPE": 0,
    "CLASSIFICATION_TYPE": "U",
    "NORAD_CAT_ID": 64798,
    "ELEMENT_SET_NO": 999,
    "REV_AT_EPOCH": 1949,
    "BSTAR": 0.0014598,
    "MEAN_MOTION_DOT": 0.00064398,
    "MEAN_MOTION_DDOT": 0.0,
    "TLE_LINE1": "1 64798U 25150J   25315.07371950  .00064398  00000+0  14598-2 0  9993",
    "TLE_LINE2": "2 64798  70.0035  79.3622 0002767 281.1799  78.9072 15.42752679 19493",
    "COMMENT": "Grouped by shell and plane from TLE"
  },
  {
    "OBJECT_NAME": "STARLINK-34660",
    "OBJECT_ID": "25150L",
    "EPOCH": "2025-11-11T07:47:59.246592",
    "MEAN_MOTION": 15.42751352,
    "ECCENTRICITY": 8.96e-05,
    "INCLINATION": 70.0017,
    "RA_OF_ASC_NODE": 78.6332,
    "ARG_OF_PERICENTER": 343.9318,
    "MEAN_ANOMALY": 16.1835,
    "EPHEMERIS_TYPE": 0,
    "CLASSIFICATION_TYPE": "U",
    "NORAD_CAT_ID": 64800,
    "ELEMENT_SET_NO": 999,
    "REV_AT_EPOCH": 1864,
    "BSTAR": 0.0025581,
    "MEAN_MOTION_DOT": 0.00113677,
    "MEAN_MOTION_DDOT": 0.0,
    "TLE_LINE1": "1 64800U 25150L   25315.32499128  .00113677  00000+0  25581-2 0  9992",
    "TLE_LINE2": "2 64800  70.0017  78.6332 0000896 343.9318  16.1835 15.42751352 18646",
    "COMMENT": "Grouped by shell and plane from TLE"
  },
  {
    "OBJECT_NAME": "STARLINK-34604",
    "OBJECT_ID": "25150M",
    "EPOCH": "2025-11-11T07:36:17.128224",
    "MEAN_MOTION": 15.42788175,
    "ECCENTRICITY": 0.0001774,
    "INCLINATION": 70.0018,
    "RA_OF_ASC_NODE": 78.6046,
    "ARG_OF_PERICENTER": 279.574,
    "MEAN_ANOMALY": 80.5242,
    "EPHEMERIS_TYPE": 0,
    "CLASSIFICATION_TYPE": "U",
    "NORAD_CAT_ID": 64801,
    "ELEMENT_SET_NO": 999,
    "REV_AT_EPOCH": 1864,
    "BSTAR": 0.0020325,
    "MEAN_MOTION_DOT": 0.00090126,
    "MEAN_MOTION_DDOT": 0.0,
    "TLE_LINE1": "1 64801U 25150M   25315.31686491  .00090126  00000+0  20325-2 0  9997",
    "TLE_LINE2": "2 64801  70.0018  78.6046 0001774 279.5740  80.5242 15.42788175 18649",
    "COMMENT": "Grouped by shell and plane from TLE"
  },
  {
    "OBJECT_NAME": "STARLINK-34633",
    "OBJECT_ID": "25150Q",
    "EPOCH": "2025-11-11T02:09:45.338976",
    "MEAN_MOTION": 15.42738058,
    "ECCENTRICITY": 0.0002348,
    "INCLINATION": 69.9964,
    "RA_OF_ASC_NODE": 79.0096,
    "ARG_OF_PERICENTER": 275.0778,
    "MEAN_ANOMALY": 85.0136,
    "EPHEMERIS_TYPE": 0,
    "CLASSIFICATION_TYPE": "U",
    "NORAD_CAT_ID": 64804,
    "ELEMENT_SET_NO": 999,
    "REV_AT_EPOCH": 1861,
    "BSTAR": 0.0015124000000000001,
    "MEAN_MOTION_DOT": 0.00066712,
    "MEAN_MOTION_DDOT": 0.0,
    "TLE_LINE1": "1 64804U 25150Q   25315.09010809  .00066712  00000+0  15124-2 0  9994",
    "TLE_LINE2": "2 64804  69.9964  79.0096 0002348 275.0778  85.0136 15.42738058 18613",
    "COMMENT": "Grouped by shell and plane from TLE"
  },
  {
    "OBJECT_NAME": "STARLINK-34624",
    "OBJECT_ID": "25150R",
    "EPOCH": "2025-11-11T07:39:08.021376",
    "MEAN_MOTION": 15.42839841,
    "ECCENTRICITY": 0.0001847,
    "INCLINATION": 70.0045,
    "RA_OF_ASC_NODE": 78.6148,
    "ARG_OF_PERICENTER": 278.5361,
    "MEAN_ANOMALY": 81.5611,
    "EPHEMERIS_TYPE": 0,
    "CLASSIFICATION_TYPE": "U",
    "NORAD_CAT_ID": 64805,
    "ELEMENT_SET_NO": 999,
    "REV_AT_EPOCH": 1864,
    "BSTAR": 0.0021579000000000004,
    "MEAN_MOTION_DOT": 0.00095933,
    "MEAN_MOTION_DDOT": 0.0,
    "TLE_LINE1": "1 64805U 25150R   25315.31884284  .00095933  00000+0  21579-2 0  9994",
    "TLE_LINE2": "2 64805  70.0045  78.6148 0001847 278.5361  81.5611 15.42839841 18643",
    "COMMENT": "Grouped by shell and plane from TLE"
  },
  {
    "OBJECT_NAME": "STARLINK-34664",
    "OBJECT_ID": "25150S",
    "EPOCH": "2025-11-11T07:24:52.058304",
    "MEAN_MOTION": 15.4279043,
    "ECCENTRICITY": 0.0003128,
    "INCLINATION": 69.9985,
    "RA_OF_ASC_NODE": 78.5728,
    "ARG_OF_PERICENTER": 260.3468,
    "MEAN_ANOMALY": 99.7361,
    "EPHEMERIS_TYPE": 0,
    "CLASSIFICATION_TYPE": "U",
    "NORAD_CAT_ID": 64806,
    "ELEMENT_SET_NO": 999,
    "REV_AT_EPOCH": 1864,
    "BSTAR": 0.0022475999999999998,
    "MEAN_MOTION_DOT": 0.00099822,
    "MEAN_MOTION_DDOT": 0.0,
    "TLE_LINE1": "1 64806U 25150S   25315.30893586  .00099822  00000+0  22476-2 0  9997",
    "TLE_LINE2": "2 64806  69.9985  78.5728 0003128 260.3468  99.7361 15.42790430 18641",
    "COMMENT": "Grouped by shell and plane from TLE"
  },
  {
    "OBJECT_NAME": "STARLINK-34696",
    "OBJECT_ID": "25150U",
    "EPOCH": "2025-11-11T07:22:00.909408",
    "MEAN_MOTION": 15.42783656,
    "ECCENTRICITY": 0.0002757,
    "INCLINATION": 69.9986,
    "RA_OF_ASC_NODE": 78.5658,
    "ARG_OF_PERICENTER": 263.6107,
    "MEAN_ANOMALY": 96.4761,
    "EPHEMERIS_TYPE": 0,
    "CLASSIFICATION_TYPE": "U",
    "NORAD_CAT_ID": 64808,
    "ELEMENT_SET_NO": 999,
    "REV_AT_EPOCH": 1864,
    "BSTAR": 0.0020841,
    "MEAN_MOTION_DOT": 0.00092435,
    "MEAN_MOTION_DDOT": 0.0,
    "TLE_LINE1": "1 64808U 25150U   25315.30695497  .00092435  00000+0  20841-2 0  9997",
    "TLE_LINE2": "2 64808  69.9986  78.5658 0002757 263.6107  96.4761 15.42783656 18649",
    "COMMENT": "Grouped by shell and plane from TLE"
  },
  {
    "OBJECT_NAME": "STARLINK-34675",
    "OBJECT_ID": "25150V",
    "EPOCH": "2025-11-11T01:49:15.932640",
    "MEAN_MOTION": 15.42773449,
    "ECCENTRICITY": 0.0003471,
    "INCLINATION": 69.9995,
    "RA_OF_ASC_NODE": 79.3691,
    "ARG_OF_PERICENTER": 280.0957,
    "MEAN_ANOMALY": 79.9833,
    "EPHEMERIS_TYPE": 0,
    "CLASSIFICATION_TYPE": "U",
    "NORAD_CAT_ID": 64809,
    "ELEMENT_SET_NO": 999,
    "REV_AT_EPOCH": 1860,
    "BSTAR": 0.0020922,
    "MEAN_MOTION_DOT": 0.00092772,
    "MEAN_MOTION_DDOT": 0.0,
    "TLE_LINE1": "1 64809U 25150V   25315.07587885  .00092772  00000+0  20922-2 0  9997",
    "TLE_LINE2": "2 64809  69.9995  79.3691 0003471 280.0957  79.9833 15.42773449 18607",
    "COMMENT": "Grouped by shell and plane from TLE"
  },
  {
    "OBJECT_NAME": "STARLINK-34669",
    "OBJECT_ID": "25150X",
    "EPOCH": "2025-11-10T18:49:05.812320",
    "MEAN_MOTION": 15.42779915,
    "ECCENTRICITY": 0.0003396,
    "INCLINATION": 70.0022,
    "RA_OF_ASC_NODE": 79.9518,
    "ARG_OF_PERICENTER": 278.7739,
    "MEAN_ANOMALY": 81.3058,
    "EPHEMERIS_TYPE": 0,
    "CLASSIFICATION_TYPE": "U",
    "NORAD_CAT_ID": 64811,
    "ELEMENT_SET_NO": 999,
    "REV_AT_EPOCH": 1856,
    "BSTAR": 0.0025118000000000002,
    "MEAN_MOTION_DOT": 0.00111706,
    "MEAN_MOTION_DDOT": 0.0,
    "TLE_LINE1": "1 64811U 25150X   25314.78409505  .00111706  00000+0  25118-2 0  9990",
    "TLE_LINE2": "2 64811  70.0022  79.9518 0003396 278.7739  81.3058 15.42779915 18561",
    "COMMENT": "Grouped by shell and plane from TLE"
  },
  {
    "OBJECT_NAME": "STARLINK-34644",
    "OBJECT_ID": "25150Y",
    "EPOCH": "2025-11-11T07:03:17.978976",
    "MEAN_MOTION": 15.42777547,
    "ECCENTRICITY": 0.0002892,
    "INCLINATION": 70.0033,
    "RA_OF_ASC_NODE": 77.2739,
    "ARG_OF_PERICENTER": 287.877,
    "MEAN_ANOMALY": 72.2096,
    "EPHEMERIS_TYPE": 0,
    "CLASSIFICATION_TYPE": "U",
    "NORAD_CAT_ID": 64812,
    "ELEMENT_SET_NO": 999,
    "REV_AT_EPOCH": 1867,
    "BSTAR": 0.001786,
    "MEAN_MOTION_DOT": 0.00079038,
    "MEAN_MOTION_DDOT": 0.0,
    "TLE_LINE1": "1 64812U 25150Y   25315.29395809  .00079038  00000+0  17860-2 0  9995",
    "TLE_LINE2": "2 64812  70.0033  77.2739 0002892 287.8770  72.2096 15.42777547 18678",
    "COMMENT": "Grouped by shell and plane from TLE"
  },
  {
    "OBJECT_NAME": "STARLINK-34685",
    "OBJECT_ID": "25150Z",
    "EPOCH": "2025-11-10T18:31:43.525056",
    "MEAN_MOTION": 15.42729157,
    "ECCENTRICITY": 0.0003498,
    "INCLINATION": 70.0008,
    "RA_OF_ASC_NODE": 79.9063,
    "ARG_OF_PERICENTER": 271.0396,
    "MEAN_ANOMALY": 89.0386,
    "EPHEMERIS_TYPE": 0,
    "CLASSIFICATION_TYPE": "U",
    "NORAD_CAT_ID": 64813,
    "ELEMENT_SET_NO": 999,
    "REV_AT_EPOCH": 1856,
    "BSTAR": 0.00089849,
    "MEAN_MOTION_DOT": 0.00039424,
    "MEAN_MOTION_DDOT": 0.0,
    "TLE_LINE1": "1 64813U 25150Z   25314.77203154  .00039424  00000+0  89849-3 0  9991",
    "TLE_LINE2": "2 64813  70.0008  79.9063 0003498 271.0396  89.0386 15.42729157 18562",
    "COMMENT": "Grouped by shell and plane from TLE"
  },
  {
    "OBJECT_NAME": "STARLINK-34668",
    "OBJECT_ID": "25150AA",
    "EPOCH": "2025-11-11T02:06:54.220320",
    "MEAN_MOTION": 15.42738527,
    "ECCENTRICITY": 0.000243,
    "INCLINATION": 69.9995,
    "RA_OF_ASC_NODE": 79.0025,
    "ARG_OF_PERICENTER": 276.1592,
    "MEAN_ANOMALY": 83.9313,
    "EPHEMERIS_TYPE": 0,
    "CLASSIFICATION_TYPE": "U",
    "NORAD_CAT_ID": 64814,
    "ELEMENT_SET_NO": 999,
    "REV_AT_EPOCH": 1861,
    "BSTAR": 0.0017312,
    "MEAN_MOTION_DOT": 0.00076482,
    "MEAN_MOTION_DDOT": 0.0,
    "TLE_LINE1": "1 64814U 25150AA  25315.08812755  .00076482  00000+0  17312-2 0  9990",
    "TLE_LINE2": "2 64814  69.9995  79.0025 0002430 276.1592  83.9313 15.42738527 18613",
    "COMMENT": "Grouped by shell and plane from TLE"
  },
  {
    "OBJECT_NAME": "STARLINK-34667",
    "OBJECT_ID": "25150AB",
    "EPOCH": "2025-11-10T18:25:45.812640",
    "MEAN_MOTION": 15.42745489,
    "ECCENTRICITY": 0.0002925,
    "INCLINATION": 70.0007,
    "RA_OF_ASC_NODE": 79.8913,
    "ARG_OF_PERICENTER": 286.3903,
    "MEAN_ANOMALY": 73.6957,
    "EPHEMERIS_TYPE": 0,
    "CLASSIFICATION_TYPE": "U",
    "NORAD_CAT_ID": 64815,
    "ELEMENT_SET_NO": 999,
    "REV_AT_EPOCH": 1856,
    "BSTAR": 0.0019592000000000004,
    "MEAN_MOTION_DOT": 0.00086713,
    "MEAN_MOTION_DDOT": 0.0,
    "TLE_LINE1": "1 64815U 25150AB  25314.76789135  .00086713  00000+0  19592-2 0  9990",
    "TLE_LINE2": "2 64815  70.0007  79.8913 0002925 286.3903  73.6957 15.42745489 18562",
    "COMMENT": "Grouped by shell and plane from TLE"
  }
]